{
  "type": "FeatureCollection",
  "features": [
    {
      "type": "Feature",
      "properties": {
        "norad_id": 38818,
        "name": "FENGYUN 1C DEB",
        "group": "fengyun-1c-debris",
        "lat": -41.39930829547424,
        "lon": 40.668607650116684,
        "alt_km": 829.3314510541923,
        "timestamp": "2025-12-02T15:49:07.480494+00:00",
        "meta_object_name": "FENGYUN 1C DEB",
        "meta_object_id": "1999-025EVJ",
        "meta_epoch": "2025-11-27T09:30:24.153696",
        "meta_mean_motion": 14.39418793,
        "meta_eccentricity": 0.00885007,
        "meta_inclination": 98.3025,
        "meta_ra_of_asc_node": 28.1739,
        "meta_arg_of_pericenter": 145.1281,
        "meta_mean_anomaly": 276.4662,
        "meta_ephemeris_type": 0,
        "meta_classification_type": "U",
        "meta_norad_cat_id": 38818,
        "meta_element_set_no": 999,
        "meta_rev_at_epoch": 67027,
        "meta_bstar": 0.00050962146,
        "meta_mean_motion_dot": 1.618e-05,
        "meta_mean_motion_ddot": 0,
        "tle_line1": "1 38818U 99025EVJ 25331.39611289  .00001618  00000+0  50962-3 0  9996",
        "tle_line2": "2 38818  98.3025  28.1739 0088500 145.1281 276.4662 14.39418793670274"
      },
      "geometry": {
        "type": "Point",
        "coordinates": [
          40.668607650116684,
          -41.39930829547424
        ]
      }
    },
    {
      "type": "Feature",
      "properties": {
        "norad_id": 38819,
        "name": "FENGYUN 1C DEB",
        "group": "fengyun-1c-debris",
        "lat": -69.4461755868239,
        "lon": -6.398110582931814,
        "alt_km": 810.250115682692,
        "timestamp": "2025-12-02T15:49:07.480504+00:00",
        "meta_object_name": "FENGYUN 1C DEB",
        "meta_object_id": "1999-025EVK",
        "meta_epoch": "2025-11-30T19:03:47.354112",
        "meta_mean_motion": 14.19336653,
        "meta_eccentricity": 0.00792799,
        "meta_inclination": 98.6177,
        "meta_ra_of_asc_node": 327.9316,
        "meta_arg_of_pericenter": 229.2227,
        "meta_mean_anomaly": 255.6081,
        "meta_ephemeris_type": 0,
        "meta_classification_type": "U",
        "meta_norad_cat_id": 38819,
        "meta_element_set_no": 999,
        "meta_rev_at_epoch": 63308,
        "meta_bstar": 0.00044451105,
        "meta_mean_motion_dot": 9.2e-06,
        "meta_mean_motion_ddot": 0,
        "tle_line1": "1 38819U 99025EVK 25334.79429808  .00000920  00000+0  44451-3 0  9999",
        "tle_line2": "2 38819  98.6177 327.9316 0079279 229.2227 255.6081 14.19336653633088"
      },
      "geometry": {
        "type": "Point",
        "coordinates": [
          -6.398110582931814,
          -69.4461755868239
        ]
      }
    },
    {
      "type": "Feature",
      "properties": {
        "norad_id": 38824,
        "name": "FENGYUN 1C DEB",
        "group": "fengyun-1c-debris",
        "lat": 33.3212943917245,
        "lon": -63.990971941431155,
        "alt_km": 834.9533555859553,
        "timestamp": "2025-12-02T15:49:07.480515+00:00",
        "meta_object_name": "FENGYUN 1C DEB",
        "meta_object_id": "1999-025EVQ",
        "meta_epoch": "2025-11-20T14:24:21.461760",
        "meta_mean_motion": 14.13875773,
        "meta_eccentricity": 0.00960414,
        "meta_inclination": 99.2955,
        "meta_ra_of_asc_node": 97.2934,
        "meta_arg_of_pericenter": 263.2679,
        "meta_mean_anomaly": 95.7556,
        "meta_ephemeris_type": 0,
        "meta_classification_type": "U",
        "meta_norad_cat_id": 38824,
        "meta_element_set_no": 999,
        "meta_rev_at_epoch": 68824,
        "meta_bstar": 0.0027703315,
        "meta_mean_motion_dot": 5.443e-05,
        "meta_mean_motion_ddot": 0,
        "tle_line1": "1 38824U 99025EVQ 25324.60024840  .00005443  00000+0  27703-2 0  9996",
        "tle_line2": "2 38824  99.2955  97.2934 0096041 263.2679  95.7556 14.13875773688246"
      },
      "geometry": {
        "type": "Point",
        "coordinates": [
          -63.990971941431155,
          33.3212943917245
        ]
      }
    },
    {
      "type": "Feature",
      "properties": {
        "norad_id": 38827,
        "name": "FENGYUN 1C DEB",
        "group": "fengyun-1c-debris",
        "lat": 75.75983385995015,
        "lon": -144.5492589874257,
        "alt_km": 847.5457741725104,
        "timestamp": "2025-12-02T15:49:07.480525+00:00",
        "meta_object_name": "FENGYUN 1C DEB",
        "meta_object_id": "1999-025EVT",
        "meta_epoch": "2025-11-30T19:46:34.848480",
        "meta_mean_motion": 14.3272809,
        "meta_eccentricity": 0.02172188,
        "meta_inclination": 98.3884,
        "meta_ra_of_asc_node": 358.1224,
        "meta_arg_of_pericenter": 348.2391,
        "meta_mean_anomaly": 11.3765,
        "meta_ephemeris_type": 0,
        "meta_classification_type": "U",
        "meta_norad_cat_id": 38827,
        "meta_element_set_no": 999,
        "meta_rev_at_epoch": 60889,
        "meta_bstar": 0.0010294413,
        "meta_mean_motion_dot": 3.594e-05,
        "meta_mean_motion_ddot": 0,
        "tle_line1": "1 38827U 99025EVT 25334.82401445  .00003594  00000+0  10294-2 0  9996",
        "tle_line2": "2 38827  98.3884 358.1224 0217218 348.2391  11.3765 14.32728090608896"
      },
      "geometry": {
        "type": "Point",
        "coordinates": [
          -144.5492589874257,
          75.75983385995015
        ]
      }
    },
    {
      "type": "Feature",
      "properties": {
        "norad_id": 38829,
        "name": "FENGYUN 1C DEB",
        "group": "fengyun-1c-debris",
        "lat": 5.127529734515081,
        "lon": 173.71426899264188,
        "alt_km": 877.4580957742692,
        "timestamp": "2025-12-02T15:49:07.480536+00:00",
        "meta_object_name": "FENGYUN 1C DEB",
        "meta_object_id": "1999-025EVV",
        "meta_epoch": "2025-11-28T12:09:37.579680",
        "meta_mean_motion": 14.09173473,
        "meta_eccentricity": 0.00415826,
        "meta_inclination": 98.7503,
        "meta_ra_of_asc_node": 348.8898,
        "meta_arg_of_pericenter": 70.4663,
        "meta_mean_anomaly": 290.0991,
        "meta_ephemeris_type": 0,
        "meta_classification_type": "U",
        "meta_norad_cat_id": 38829,
        "meta_element_set_no": 999,
        "meta_rev_at_epoch": 63932,
        "meta_bstar": 0.00056587384,
        "meta_mean_motion_dot": 9.49e-06,
        "meta_mean_motion_ddot": 0,
        "tle_line1": "1 38829U 99025EVV 25332.50668495  .00000949  00000+0  56587-3 0  9998",
        "tle_line2": "2 38829  98.7503 348.8898 0041582  70.4663 290.0991 14.09173473639320"
      },
      "geometry": {
        "type": "Point",
        "coordinates": [
          173.71426899264188,
          5.127529734515081
        ]
      }
    },
    {
      "type": "Feature",
      "properties": {
        "norad_id": 38832,
        "name": "FENGYUN 1C DEB",
        "group": "fengyun-1c-debris",
        "lat": 61.21439384005239,
        "lon": 3.535219476729485,
        "alt_km": 811.56842361695,
        "timestamp": "2025-12-02T15:49:07.480546+00:00",
        "meta_object_name": "FENGYUN 1C DEB",
        "meta_object_id": "1999-025EVY",
        "meta_epoch": "2025-12-01T22:25:38.493120",
        "meta_mean_motion": 14.04437994,
        "meta_eccentricity": 0.00847426,
        "meta_inclination": 99.2676,
        "meta_ra_of_asc_node": 20.0842,
        "meta_arg_of_pericenter": 72.9127,
        "meta_mean_anomaly": 288.13,
        "meta_ephemeris_type": 0,
        "meta_classification_type": "U",
        "meta_norad_cat_id": 38832,
        "meta_element_set_no": 999,
        "meta_rev_at_epoch": 63606,
        "meta_bstar": 0.0011615033,
        "meta_mean_motion_dot": 1.866e-05,
        "meta_mean_motion_ddot": 0,
        "tle_line1": "1 38832U 99025EVY 25335.93447330  .00001866  00000+0  11615-2 0  9996",
        "tle_line2": "2 38832  99.2676  20.0842 0084742  72.9127 288.1300 14.04437994636062"
      },
      "geometry": {
        "type": "Point",
        "coordinates": [
          3.535219476729485,
          61.21439384005239
        ]
      }
    },
    {
      "type": "Feature",
      "properties": {
        "norad_id": 39536,
        "name": "FENGYUN 1C DEB",
        "group": "fengyun-1c-debris",
        "lat": -46.41944216534974,
        "lon": 26.89143575987657,
        "alt_km": 852.1159782832747,
        "timestamp": "2025-12-02T15:49:07.480557+00:00",
        "meta_object_name": "FENGYUN 1C DEB",
        "meta_object_id": "1999-025EWD",
        "meta_epoch": "2025-11-07T21:44:34.572480",
        "meta_mean_motion": 13.69653557,
        "meta_eccentricity": 0.02407275,
        "meta_inclination": 99.7905,
        "meta_ra_of_asc_node": 351.2614,
        "meta_arg_of_pericenter": 346.3194,
        "meta_mean_anomaly": 13.1503,
        "meta_ephemeris_type": 0,
        "meta_classification_type": "U",
        "meta_norad_cat_id": 39536,
        "meta_element_set_no": 999,
        "meta_rev_at_epoch": 61287,
        "meta_bstar": 0.0015441724,
        "meta_mean_motion_dot": 1.606e-05,
        "meta_mean_motion_ddot": 0,
        "tle_line1": "1 39536U 99025EWD 25311.90595570  .00001606  00000+0  15442-2 0  9993",
        "tle_line2": "2 39536  99.7905 351.2614 0240727 346.3194  13.1503 13.69653557612878"
      },
      "geometry": {
        "type": "Point",
        "coordinates": [
          26.89143575987657,
          -46.41944216534974
        ]
      }
    }
  ]
}